brand,name,addr:housenumber,addr:street,addr:city,addr:state,addr:postcode,phone,website,lat,lon,coming_soon,source_url
Just Salad,{{location_name}},"{{address_1}} {{address_2}} {{city}} ,Â {{state}} Â {{zipcode}}",,,,,,https://www.justsalad.com/location/1-new-york,,,,https://www.justsalad.com/location/1-new-york
Just Salad,{{location_name}},"{{address_1}} {{address_2}} {{city}} ,Â {{state}} Â {{zipcode}}",,,,,,https://www.justsalad.com/location/10-new-york,,,,https://www.justsalad.com/location/10-new-york
Just Salad,{{location_name}},"{{address_1}} {{address_2}} {{city}} ,Â {{state}} Â {{zipcode}}",,,,,,https://www.justsalad.com/location/1005-totowa,,,,https://www.justsalad.com/location/1005-totowa
Just Salad,{{location_name}},"{{address_1}} {{address_2}} {{city}} ,Â {{state}} Â {{zipcode}}",,,,,,https://www.justsalad.com/location/1006-pompton-plains,,,,https://www.justsalad.com/location/1006-pompton-plains
Just Salad,{{location_name}},"{{address_1}} {{address_2}} {{city}} ,Â {{state}} Â {{zipcode}}",,,,,,https://www.justsalad.com/location/1007-paramus,,,,https://www.justsalad.com/location/1007-paramus
Just Salad,{{location_name}},"{{address_1}} {{address_2}} {{city}} ,Â {{state}} Â {{zipcode}}",,,,,,https://www.justsalad.com/location/101-coral-springs,,,,https://www.justsalad.com/location/101-coral-springs
Just Salad,{{location_name}},"{{address_1}} {{address_2}} {{city}} ,Â {{state}} Â {{zipcode}}",,,,,,https://www.justsalad.com/location/102-cambridge,,,,https://www.justsalad.com/location/102-cambridge
Just Salad,{{location_name}},"{{address_1}} {{address_2}} {{city}} ,Â {{state}} Â {{zipcode}}",,,,,,https://www.justsalad.com/location/103-west-hartford,,,,https://www.justsalad.com/location/103-west-hartford
Just Salad,{{location_name}},"{{address_1}} {{address_2}} {{city}} ,Â {{state}} Â {{zipcode}}",,,,,,https://www.justsalad.com/location/104-westport,,,,https://www.justsalad.com/location/104-westport
Just Salad,{{location_name}},"{{address_1}} {{address_2}} {{city}} ,Â {{state}} Â {{zipcode}}",,,,,,https://www.justsalad.com/location/105-plainview,,,,https://www.justsalad.com/location/105-plainview
Just Salad,{{location_name}},"{{address_1}} {{address_2}} {{city}} ,Â {{state}} Â {{zipcode}}",,,,,,https://www.justsalad.com/location/107-chicago,,,,https://www.justsalad.com/location/107-chicago
Just Salad,{{location_name}},"{{address_1}} {{address_2}} {{city}} ,Â {{state}} Â {{zipcode}}",,,,,,https://www.justsalad.com/location/108-east-meadow,,,,https://www.justsalad.com/location/108-east-meadow
Just Salad,{{location_name}},"{{address_1}} {{address_2}} {{city}} ,Â {{state}} Â {{zipcode}}",,,,,,https://www.justsalad.com/location/109-wilmette,,,,https://www.justsalad.com/location/109-wilmette
Just Salad,{{location_name}},"{{address_1}} {{address_2}} {{city}} ,Â {{state}} Â {{zipcode}}",,,,,,https://www.justsalad.com/location/11-new-york,,,,https://www.justsalad.com/location/11-new-york
Just Salad,{{location_name}},"{{address_1}} {{address_2}} {{city}} ,Â {{state}} Â {{zipcode}}",,,,,,https://www.justsalad.com/location/111-new-york,,,,https://www.justsalad.com/location/111-new-york
Just Salad,{{location_name}},"{{address_1}} {{address_2}} {{city}} ,Â {{state}} Â {{zipcode}}",,,,,,https://www.justsalad.com/location/112-forest-hills,,,,https://www.justsalad.com/location/112-forest-hills
Just Salad,{{location_name}},"{{address_1}} {{address_2}} {{city}} ,Â {{state}} Â {{zipcode}}",,,,,,https://www.justsalad.com/location/115-middletown,,,,https://www.justsalad.com/location/115-middletown
Just Salad,{{location_name}},"{{address_1}} {{address_2}} {{city}} ,Â {{state}} Â {{zipcode}}",,,,,,https://www.justsalad.com/location/116-ocean,,,,https://www.justsalad.com/location/116-ocean
Just Salad,{{location_name}},"{{address_1}} {{address_2}} {{city}} ,Â {{state}} Â {{zipcode}}",,,,,,https://www.justsalad.com/location/118-chicago,,,,https://www.justsalad.com/location/118-chicago
Just Salad,{{location_name}},"{{address_1}} {{address_2}} {{city}} ,Â {{state}} Â {{zipcode}}",,,,,,https://www.justsalad.com/location/119-oviedo,,,,https://www.justsalad.com/location/119-oviedo
Just Salad,{{location_name}},"{{address_1}} {{address_2}} {{city}} ,Â {{state}} Â {{zipcode}}",,,,,,https://www.justsalad.com/location/12-new-york,,,,https://www.justsalad.com/location/12-new-york
Just Salad,{{location_name}},"{{address_1}} {{address_2}} {{city}} ,Â {{state}} Â {{zipcode}}",,,,,,https://www.justsalad.com/location/120-washington,,,,https://www.justsalad.com/location/120-washington
Just Salad,{{location_name}},"{{address_1}} {{address_2}} {{city}} ,Â {{state}} Â {{zipcode}}",,,,,,https://www.justsalad.com/location/121-cherry-hill,,,,https://www.justsalad.com/location/121-cherry-hill
Just Salad,{{location_name}},"{{address_1}} {{address_2}} {{city}} ,Â {{state}} Â {{zipcode}}",,,,,,https://www.justsalad.com/location/122-chestnut-hill,,,,https://www.justsalad.com/location/122-chestnut-hill
Just Salad,{{location_name}},"{{address_1}} {{address_2}} {{city}} ,Â {{state}} Â {{zipcode}}",,,,,,https://www.justsalad.com/location/123-new-york,,,,https://www.justsalad.com/location/123-new-york
Just Salad,{{location_name}},"{{address_1}} {{address_2}} {{city}} ,Â {{state}} Â {{zipcode}}",,,,,,https://www.justsalad.com/location/124-mount-laurel,,,,https://www.justsalad.com/location/124-mount-laurel
Just Salad,{{location_name}},"{{address_1}} {{address_2}} {{city}} ,Â {{state}} Â {{zipcode}}",,,,,,https://www.justsalad.com/location/125-new-york,,,,https://www.justsalad.com/location/125-new-york
Just Salad,{{location_name}},"{{address_1}} {{address_2}} {{city}} ,Â {{state}} Â {{zipcode}}",,,,,,https://www.justsalad.com/location/13-new-york,,,,https://www.justsalad.com/location/13-new-york
Just Salad,{{location_name}},"{{address_1}} {{address_2}} {{city}} ,Â {{state}} Â {{zipcode}}",,,,,,https://www.justsalad.com/location/134-tampa,,,,https://www.justsalad.com/location/134-tampa
Just Salad,{{location_name}},"{{address_1}} {{address_2}} {{city}} ,Â {{state}} Â {{zipcode}}",,,,,,https://www.justsalad.com/location/14-new-york,,,,https://www.justsalad.com/location/14-new-york
Just Salad,{{location_name}},"{{address_1}} {{address_2}} {{city}} ,Â {{state}} Â {{zipcode}}",,,,,,https://www.justsalad.com/location/15-new-york,,,,https://www.justsalad.com/location/15-new-york
Just Salad,{{location_name}},"{{address_1}} {{address_2}} {{city}} ,Â {{state}} Â {{zipcode}}",,,,,,https://www.justsalad.com/location/16-new-york,,,,https://www.justsalad.com/location/16-new-york
Just Salad,{{location_name}},"{{address_1}} {{address_2}} {{city}} ,Â {{state}} Â {{zipcode}}",,,,,,https://www.justsalad.com/location/17-new-york,,,,https://www.justsalad.com/location/17-new-york
Just Salad,{{location_name}},"{{address_1}} {{address_2}} {{city}} ,Â {{state}} Â {{zipcode}}",,,,,,https://www.justsalad.com/location/18-chicago,,,,https://www.justsalad.com/location/18-chicago
Just Salad,{{location_name}},"{{address_1}} {{address_2}} {{city}} ,Â {{state}} Â {{zipcode}}",,,,,,https://www.justsalad.com/location/19-new-york,,,,https://www.justsalad.com/location/19-new-york
Just Salad,{{location_name}},"{{address_1}} {{address_2}} {{city}} ,Â {{state}} Â {{zipcode}}",,,,,,https://www.justsalad.com/location/20-brooklyn,,,,https://www.justsalad.com/location/20-brooklyn
Just Salad,{{location_name}},"{{address_1}} {{address_2}} {{city}} ,Â {{state}} Â {{zipcode}}",,,,,,https://www.justsalad.com/location/22-chicago,,,,https://www.justsalad.com/location/22-chicago
Just Salad,{{location_name}},"{{address_1}} {{address_2}} {{city}} ,Â {{state}} Â {{zipcode}}",,,,,,https://www.justsalad.com/location/23-central-valley,,,,https://www.justsalad.com/location/23-central-valley
Just Salad,{{location_name}},"{{address_1}} {{address_2}} {{city}} ,Â {{state}} Â {{zipcode}}",,,,,,https://www.justsalad.com/location/24-new-york,,,,https://www.justsalad.com/location/24-new-york
Just Salad,{{location_name}},"{{address_1}} {{address_2}} {{city}} ,Â {{state}} Â {{zipcode}}",,,,,,https://www.justsalad.com/location/26-jersey-city,,,,https://www.justsalad.com/location/26-jersey-city
Just Salad,{{location_name}},"{{address_1}} {{address_2}} {{city}} ,Â {{state}} Â {{zipcode}}",,,,,,https://www.justsalad.com/location/27-chicago,,,,https://www.justsalad.com/location/27-chicago
Just Salad,{{location_name}},"{{address_1}} {{address_2}} {{city}} ,Â {{state}} Â {{zipcode}}",,,,,,https://www.justsalad.com/location/29-philadelphia,,,,https://www.justsalad.com/location/29-philadelphia
Just Salad,{{location_name}},"{{address_1}} {{address_2}} {{city}} ,Â {{state}} Â {{zipcode}}",,,,,,https://www.justsalad.com/location/3-new-york,,,,https://www.justsalad.com/location/3-new-york
Just Salad,{{location_name}},"{{address_1}} {{address_2}} {{city}} ,Â {{state}} Â {{zipcode}}",,,,,,https://www.justsalad.com/location/30-new-york,,,,https://www.justsalad.com/location/30-new-york
Just Salad,{{location_name}},"{{address_1}} {{address_2}} {{city}} ,Â {{state}} Â {{zipcode}}",,,,,,https://www.justsalad.com/location/31-philadelphia,,,,https://www.justsalad.com/location/31-philadelphia
Just Salad,{{location_name}},"{{address_1}} {{address_2}} {{city}} ,Â {{state}} Â {{zipcode}}",,,,,,https://www.justsalad.com/location/32-new-york,,,,https://www.justsalad.com/location/32-new-york
Just Salad,{{location_name}},"{{address_1}} {{address_2}} {{city}} ,Â {{state}} Â {{zipcode}}",,,,,,https://www.justsalad.com/location/33-new-york,,,,https://www.justsalad.com/location/33-new-york
Just Salad,{{location_name}},"{{address_1}} {{address_2}} {{city}} ,Â {{state}} Â {{zipcode}}",,,,,,https://www.justsalad.com/location/36-new-york,,,,https://www.justsalad.com/location/36-new-york
Just Salad,{{location_name}},"{{address_1}} {{address_2}} {{city}} ,Â {{state}} Â {{zipcode}}",,,,,,https://www.justsalad.com/location/37-chicago,,,,https://www.justsalad.com/location/37-chicago
Just Salad,{{location_name}},"{{address_1}} {{address_2}} {{city}} ,Â {{state}} Â {{zipcode}}",,,,,,https://www.justsalad.com/location/43-chicago,,,,https://www.justsalad.com/location/43-chicago
Just Salad,{{location_name}},"{{address_1}} {{address_2}} {{city}} ,Â {{state}} Â {{zipcode}}",,,,,,https://www.justsalad.com/location/45-new-york,,,,https://www.justsalad.com/location/45-new-york
Just Salad,{{location_name}},"{{address_1}} {{address_2}} {{city}} ,Â {{state}} Â {{zipcode}}",,,,,,https://www.justsalad.com/location/46-chicago,,,,https://www.justsalad.com/location/46-chicago
Just Salad,{{location_name}},"{{address_1}} {{address_2}} {{city}} ,Â {{state}} Â {{zipcode}}",,,,,,https://www.justsalad.com/location/47-new-york,,,,https://www.justsalad.com/location/47-new-york
Just Salad,{{location_name}},"{{address_1}} {{address_2}} {{city}} ,Â {{state}} Â {{zipcode}}",,,,,,https://www.justsalad.com/location/48-miami,,,,https://www.justsalad.com/location/48-miami
Just Salad,{{location_name}},"{{address_1}} {{address_2}} {{city}} ,Â {{state}} Â {{zipcode}}",,,,,,https://www.justsalad.com/location/5-new-york,,,,https://www.justsalad.com/location/5-new-york
Just Salad,{{location_name}},"{{address_1}} {{address_2}} {{city}} ,Â {{state}} Â {{zipcode}}",,,,,,https://www.justsalad.com/location/50-new-york,,,,https://www.justsalad.com/location/50-new-york
Just Salad,{{location_name}},"{{address_1}} {{address_2}} {{city}} ,Â {{state}} Â {{zipcode}}",,,,,,https://www.justsalad.com/location/51-new-york,,,,https://www.justsalad.com/location/51-new-york
Just Salad,{{location_name}},"{{address_1}} {{address_2}} {{city}} ,Â {{state}} Â {{zipcode}}",,,,,,https://www.justsalad.com/location/52-new-york,,,,https://www.justsalad.com/location/52-new-york
Just Salad,{{location_name}},"{{address_1}} {{address_2}} {{city}} ,Â {{state}} Â {{zipcode}}",,,,,,https://www.justsalad.com/location/53-new-york,,,,https://www.justsalad.com/location/53-new-york
Just Salad,{{location_name}},"{{address_1}} {{address_2}} {{city}} ,Â {{state}} Â {{zipcode}}",,,,,,https://www.justsalad.com/location/54-coral-gables,,,,https://www.justsalad.com/location/54-coral-gables
Just Salad,{{location_name}},"{{address_1}} {{address_2}} {{city}} ,Â {{state}} Â {{zipcode}}",,,,,,https://www.justsalad.com/location/57-oceanside,,,,https://www.justsalad.com/location/57-oceanside
Just Salad,{{location_name}},"{{address_1}} {{address_2}} {{city}} ,Â {{state}} Â {{zipcode}}",,,,,,https://www.justsalad.com/location/58-hoboken,,,,https://www.justsalad.com/location/58-hoboken
Just Salad,{{location_name}},"{{address_1}} {{address_2}} {{city}} ,Â {{state}} Â {{zipcode}}",,,,,,https://www.justsalad.com/location/59-brooklyn,,,,https://www.justsalad.com/location/59-brooklyn
Just Salad,{{location_name}},"{{address_1}} {{address_2}} {{city}} ,Â {{state}} Â {{zipcode}}",,,,,,https://www.justsalad.com/location/61-port-st-lucie,,,,https://www.justsalad.com/location/61-port-st-lucie
Just Salad,{{location_name}},"{{address_1}} {{address_2}} {{city}} ,Â {{state}} Â {{zipcode}}",,,,,,https://www.justsalad.com/location/62-new-york,,,,https://www.justsalad.com/location/62-new-york
Just Salad,{{location_name}},"{{address_1}} {{address_2}} {{city}} ,Â {{state}} Â {{zipcode}}",,,,,,https://www.justsalad.com/location/63-new-york,,,,https://www.justsalad.com/location/63-new-york
Just Salad,{{location_name}},"{{address_1}} {{address_2}} {{city}} ,Â {{state}} Â {{zipcode}}",,,,,,https://www.justsalad.com/location/65-westbury,,,,https://www.justsalad.com/location/65-westbury
Just Salad,{{location_name}},"{{address_1}} {{address_2}} {{city}} ,Â {{state}} Â {{zipcode}}",,,,,,https://www.justsalad.com/location/66-west-windsor-township,,,,https://www.justsalad.com/location/66-west-windsor-township
Just Salad,{{location_name}},"{{address_1}} {{address_2}} {{city}} ,Â {{state}} Â {{zipcode}}",,,,,,https://www.justsalad.com/location/67-lake-grove,,,,https://www.justsalad.com/location/67-lake-grove
Just Salad,{{location_name}},"{{address_1}} {{address_2}} {{city}} ,Â {{state}} Â {{zipcode}}",,,,,,https://www.justsalad.com/location/68-commack,,,,https://www.justsalad.com/location/68-commack
Just Salad,{{location_name}},"{{address_1}} {{address_2}} {{city}} ,Â {{state}} Â {{zipcode}}",,,,,,https://www.justsalad.com/location/7-new-york,,,,https://www.justsalad.com/location/7-new-york
Just Salad,{{location_name}},"{{address_1}} {{address_2}} {{city}} ,Â {{state}} Â {{zipcode}}",,,,,,https://www.justsalad.com/location/72-brooklyn,,,,https://www.justsalad.com/location/72-brooklyn
Just Salad,{{location_name}},"{{address_1}} {{address_2}} {{city}} ,Â {{state}} Â {{zipcode}}",,,,,,https://www.justsalad.com/location/73-huntington-station,,,,https://www.justsalad.com/location/73-huntington-station
Just Salad,{{location_name}},"{{address_1}} {{address_2}} {{city}} ,Â {{state}} Â {{zipcode}}",,,,,,https://www.justsalad.com/location/74-new-york,,,,https://www.justsalad.com/location/74-new-york
Just Salad,{{location_name}},"{{address_1}} {{address_2}} {{city}} ,Â {{state}} Â {{zipcode}}",,,,,,https://www.justsalad.com/location/75-new-york,,,,https://www.justsalad.com/location/75-new-york
Just Salad,{{location_name}},"{{address_1}} {{address_2}} {{city}} ,Â {{state}} Â {{zipcode}}",,,,,,https://www.justsalad.com/location/76-new-york,,,,https://www.justsalad.com/location/76-new-york
Just Salad,{{location_name}},"{{address_1}} {{address_2}} {{city}} ,Â {{state}} Â {{zipcode}}",,,,,,https://www.justsalad.com/location/77-boston,,,,https://www.justsalad.com/location/77-boston
Just Salad,{{location_name}},"{{address_1}} {{address_2}} {{city}} ,Â {{state}} Â {{zipcode}}",,,,,,https://www.justsalad.com/location/78-doral,,,,https://www.justsalad.com/location/78-doral
Just Salad,{{location_name}},"{{address_1}} {{address_2}} {{city}} ,Â {{state}} Â {{zipcode}}",,,,,,https://www.justsalad.com/location/79-morristown,,,,https://www.justsalad.com/location/79-morristown
Just Salad,{{location_name}},"{{address_1}} {{address_2}} {{city}} ,Â {{state}} Â {{zipcode}}",,,,,,https://www.justsalad.com/location/8-new-york,,,,https://www.justsalad.com/location/8-new-york
Just Salad,{{location_name}},"{{address_1}} {{address_2}} {{city}} ,Â {{state}} Â {{zipcode}}",,,,,,https://www.justsalad.com/location/80-sea-girt,,,,https://www.justsalad.com/location/80-sea-girt
Just Salad,{{location_name}},"{{address_1}} {{address_2}} {{city}} ,Â {{state}} Â {{zipcode}}",,,,,,https://www.justsalad.com/location/82-brooklyn,,,,https://www.justsalad.com/location/82-brooklyn
Just Salad,{{location_name}},"{{address_1}} {{address_2}} {{city}} ,Â {{state}} Â {{zipcode}}",,,,,,https://www.justsalad.com/location/83-needham,,,,https://www.justsalad.com/location/83-needham
Just Salad,{{location_name}},"{{address_1}} {{address_2}} {{city}} ,Â {{state}} Â {{zipcode}}",,,,,,https://www.justsalad.com/location/84-boynton,,,,https://www.justsalad.com/location/84-boynton
Just Salad,{{location_name}},"{{address_1}} {{address_2}} {{city}} ,Â {{state}} Â {{zipcode}}",,,,,,https://www.justsalad.com/location/85-livingston,,,,https://www.justsalad.com/location/85-livingston
Just Salad,{{location_name}},"{{address_1}} {{address_2}} {{city}} ,Â {{state}} Â {{zipcode}}",,,,,,https://www.justsalad.com/location/86-burlington,,,,https://www.justsalad.com/location/86-burlington
Just Salad,{{location_name}},"{{address_1}} {{address_2}} {{city}} ,Â {{state}} Â {{zipcode}}",,,,,,https://www.justsalad.com/location/87-miami,,,,https://www.justsalad.com/location/87-miami
Just Salad,{{location_name}},"{{address_1}} {{address_2}} {{city}} ,Â {{state}} Â {{zipcode}}",,,,,,https://www.justsalad.com/location/88-hauppauge,,,,https://www.justsalad.com/location/88-hauppauge
Just Salad,{{location_name}},"{{address_1}} {{address_2}} {{city}} ,Â {{state}} Â {{zipcode}}",,,,,,https://www.justsalad.com/location/89-shrewsbury,,,,https://www.justsalad.com/location/89-shrewsbury
Just Salad,{{location_name}},"{{address_1}} {{address_2}} {{city}} ,Â {{state}} Â {{zipcode}}",,,,,,https://www.justsalad.com/location/9-new-york,,,,https://www.justsalad.com/location/9-new-york
Just Salad,{{location_name}},"{{address_1}} {{address_2}} {{city}} ,Â {{state}} Â {{zipcode}}",,,,,,https://www.justsalad.com/location/90-plantation,,,,https://www.justsalad.com/location/90-plantation
Just Salad,{{location_name}},"{{address_1}} {{address_2}} {{city}} ,Â {{state}} Â {{zipcode}}",,,,,,https://www.justsalad.com/location/91-boston,,,,https://www.justsalad.com/location/91-boston
Just Salad,{{location_name}},"{{address_1}} {{address_2}} {{city}} ,Â {{state}} Â {{zipcode}}",,,,,,https://www.justsalad.com/location/92-queens,,,,https://www.justsalad.com/location/92-queens
Just Salad,{{location_name}},"{{address_1}} {{address_2}} {{city}} ,Â {{state}} Â {{zipcode}}",,,,,,https://www.justsalad.com/location/93-new-york,,,,https://www.justsalad.com/location/93-new-york
Just Salad,{{location_name}},"{{address_1}} {{address_2}} {{city}} ,Â {{state}} Â {{zipcode}}",,,,,,https://www.justsalad.com/location/94-clifton,,,,https://www.justsalad.com/location/94-clifton
Just Salad,{{location_name}},"{{address_1}} {{address_2}} {{city}} ,Â {{state}} Â {{zipcode}}",,,,,,https://www.justsalad.com/location/95-bayside,,,,https://www.justsalad.com/location/95-bayside
Just Salad,{{location_name}},"{{address_1}} {{address_2}} {{city}} ,Â {{state}} Â {{zipcode}}",,,,,,https://www.justsalad.com/location/96-delray-beach,,,,https://www.justsalad.com/location/96-delray-beach
Just Salad,{{location_name}},"{{address_1}} {{address_2}} {{city}} ,Â {{state}} Â {{zipcode}}",,,,,,https://www.justsalad.com/location/97-port-washington,,,,https://www.justsalad.com/location/97-port-washington
Just Salad,{{location_name}},"{{address_1}} {{address_2}} {{city}} ,Â {{state}} Â {{zipcode}}",,,,,,https://www.justsalad.com/location/98-norwalk,,,,https://www.justsalad.com/location/98-norwalk
Just Salad,{{location_name}},"{{address_1}} {{address_2}} {{city}} ,Â {{state}} Â {{zipcode}}",,,,,,https://www.justsalad.com/location/99-freehold,,,,https://www.justsalad.com/location/99-freehold
